H1 CPF 01  gfz 2022 08 08 00  7201 terrasarx 
H2 0702601  6201 31698    2022 08 08 00 59 42 2022 08 13 00 00 42   120 1 1  0 0 0
H9
10 0 59799  69822.000000  0    2494516.354  -1794676.234   6154705.919
10 0 59799  69942.000000  0    1671538.865  -1552683.107   6489133.245
10 0 59799  70062.000000  0     823992.916  -1268973.858   6709508.164
10 0 59799  70182.000000  0     -32638.168   -948210.112   6811982.905
10 0 59799  70302.000000  0    -882809.066   -595967.354   6794768.991
10 0 59799  70422.000000  0   -1711193.158   -218638.115   6658165.939
10 0 59799  70542.000000  0   -2502957.460    176683.669   6404556.420
10 0 59799  70662.000000  0   -3244027.618    582335.157   6038368.047
10 0 59799  70782.000000  0   -3921339.725    990231.650   5566001.670
10 0 59799  70902.000000  0   -4523075.266   1392025.843   4995725.896
10 0 59799  71022.000000  0   -5038873.873   1779277.272   4337538.085
10 0 59799  71142.000000  0   -5460019.759   2143628.474   3602993.273
10 0 59799  71262.000000  0   -5779596.886   2476983.592   2805003.556
10 0 59799  71382.000000  0   -5992610.568   2771685.862   1957611.577
10 0 59799  71502.000000  0   -6096072.770   3020690.034   1075740.665
10 0 59799  71622.000000  0   -6089047.038   3217725.075    174925.003
10 0 59799  71742.000000  0   -5972650.934   3357442.347   -728972.110
10 0 59799  71862.000000  0   -5750017.591   3435545.498  -1620046.334
10 0 59799  71982.000000  0   -5426217.143   3448899.492  -2482641.537
10 0 59799  72102.000000  0   -5008137.531   3395614.930  -3301632.452
10 0 59799  72222.000000  0   -4504331.108   3275106.254  -4062693.789
10 0 59799  72342.000000  0   -3924830.512   3088122.639  -4752550.164
10 0 59799  72462.000000  0   -3280940.380   2836751.746  -5359203.153
10 0 59799  72582.000000  0   -2585010.304   2524396.870  -5872131.043
10 0 59799  72702.000000  0   -1850194.364   2155729.265  -6282462.077
10 0 59799  72822.000000  0   -1090199.644   1736615.036  -6583116.585
10 0 59799  72942.000000  0    -319032.426   1274020.017  -6768917.090
10 0 59799  73062.000000  0     449255.402    775893.860  -6836667.759
10 0 59799  73182.000000  0    1200815.481    251036.011  -6785204.300
10 0 59799  73302.000000  0    1922248.097   -291056.732  -6615412.578
10 0 59799  73422.000000  0    2600835.227   -840357.807  -6330213.830
10 0 59799  73542.000000  0    3224761.036  -1386491.455  -5934520.351
10 0 59799  73662.000000  0    3783315.813  -1918923.367  -5435159.257
10 0 59799  73782.000000  0    4267082.199  -2427160.607  -4840766.787
10 0 59799  73902.000000  0    4668098.899  -2900957.546  -4161649.459
10 0 59799  74022.000000  0    4979997.832  -3330522.072  -3409615.445
10 0 59799  74142.000000  0    5198113.740  -3706718.572  -2597777.827
10 0 59799  74262.000000  0    5319562.712  -4021263.675  -1740330.398
10 0 59799  74382.000000  0    5343285.849  -4266909.160   -852300.429
10 0 59799  74502.000000  0    5270057.364  -4437608.126     50717.469
10 0 59799  74622.000000  0    5102455.673  -4528660.010    952841.319
10 0 59799  74742.000000  0    4844796.786  -4536828.700   1838189.953
10 0 59799  74862.000000  0    4503032.442  -4460430.982   2691171.584
10 0 59799  74982.000000  0    4084616.217  -4299393.032   3496766.203
10 0 59799  75102.000000  0    3598340.709  -4055274.872   4240796.466
10 0 59799  75222.000000  0    3054148.977  -3731261.158   4910181.551
10 0 59799  75342.000000  0    2462926.605  -3332118.151   5493167.566
10 0 59799  75462.000000  0    1836279.847  -2864120.072   5979532.407
10 0 59799  75582.000000  0    1186303.189  -2334945.022   6360760.478
10 0 59799  75702.000000  0     525343.377  -1753544.821   6630185.407
10 0 59799  75822.000000  0    -134236.446  -1129990.660   6783100.468
10 0 59799  75942.000000  0    -780287.435   -475296.609   6816835.769
10 0 59799  76062.000000  0   -1401097.680    198775.470   6730801.515
10 0 59799  76182.000000  0   -1985603.751    879926.741   6526497.716
10 0 59799  76302.000000  0   -2523587.482   1555544.932   6207489.726
10 0 59799  76422.000000  0   -3005855.324   2212936.942   5779350.037
10 0 59799  76542.000000  0   -3424397.668   2839567.626   5249567.436
10 0 59799  76662.000000  0   -3772525.994   3423300.848   4627422.188
10 0 59799  76782.000000  0   -4044984.506   3952637.547   3923828.911
10 0 59799  76902.000000  0   -4238033.884   4416947.219   3151149.156
10 0 59799  77022.000000  0   -4349505.027   4806687.148   2322974.939
10 0 59799  77142.000000  0   -4378820.040   5113603.119   1453886.950
10 0 59799  77262.000000  0   -4326981.438   5330906.624    559193.190
10 0 59799  77382.000000  0   -4196529.949   5453425.020   -345347.115
10 0 59799  77502.000000  0   -3991470.254   5477721.316  -1243810.606
10 0 59799  77622.000000  0   -3717165.849   5402176.499  -2120401.058
10 0 59799  77742.000000  0   -3380206.462   5227034.810  -2959734.344
10 0 59799  77862.000000  0   -2988252.686   4954411.842  -3747114.028
10 0 59799  77982.000000  0   -2549862.094   4588263.543  -4468789.733
10 0 59799  78102.000000  0   -2074301.532   4134320.163  -5112193.676
10 0 59799  78222.000000  0   -1571351.144   3599988.517  -5666151.931
10 0 59799  78342.000000  0   -1051103.929   2994223.691  -6121070.470
10 0 59799  78462.000000  0    -523764.188   2327371.787  -6469091.178
10 0 59799  78582.000000  0        550.095   1610989.337  -6704215.441
10 0 59799  78702.000000  0     511996.669    857642.880  -6822397.315
10 0 59799  78822.000000  0    1001189.304     80691.545  -6821606.346
10 0 59799  78942.000000  0    1459366.365   -705945.710  -6701858.420
10 0 59799  79062.000000  0    1878543.393  -1488033.600  -6465213.921
10 0 59799  79182.000000  0    2251649.327  -2251271.124  -6115746.275
10 0 59799  79302.000000  0    2572644.853  -2981546.943  -5659480.090
10 0 59799  79422.000000  0    2836621.483  -3665198.639  -5104299.340
10 0 59799  79542.000000  0    3039878.999  -4289269.950  -4459820.497
10 0 59799  79662.000000  0    3179978.122  -4841757.567  -3737235.566
10 0 59799  79782.000000  0    3255769.806  -5311847.199  -2949128.764
10 0 59799  79902.000000  0    3267399.361  -5690134.601  -2109264.077
10 0 59799  80022.000000  0    3216284.250  -5968822.224  -1232347.025
10 0 59799  80142.000000  0    3105065.919  -6141888.560   -333765.852
10 0 59799  80262.000000  0    2937535.201  -6205223.742    570684.546
10 0 59799  80382.000000  0    2718533.525  -6156727.338   1465086.904
10 0 59799  80502.000000  0    2453833.338  -5996367.700   2333691.361
10 0 59799  80622.000000  0    2149998.572  -5726196.719   3161202.475
10 0 59799  80742.000000  0    1814230.365  -5350322.680   3933054.732
10 0 59799  80862.000000  0    1454201.978  -4874843.590   4635673.297
10 0 59799  80982.000000  0    1077887.782  -4307741.070   5256714.600
10 0 59799  81102.000000  0     693389.312  -3658738.330   5785283.956
10 0 59799  81222.000000  0     308762.036  -2939122.989   6212123.060
10 0 59799  81342.000000  0     -68151.532  -2161543.225   6529765.080
10 0 59799  81462.000000  0    -429879.451  -1339781.314   6732658.458
10 0 59799  81582.000000  0    -769466.666   -488507.652   6817259.194
10 0 59799  81702.000000  0   -1080607.464    376982.505   6782089.633
10 0 59799  81822.000000  0   -1357762.018   1241043.876   6627762.418
10 0 59799  81942.000000  0   -1596254.657   2087963.143   6356970.245
10 0 59799  82062.000000  0   -1792353.174   2902244.186   5974442.062
10 0 59799  82182.000000  0   -1943327.646   3668892.480   5486865.097
10 0 59799  82302.000000  0   -2047487.551   4373693.696   4902774.520
10 0 59799  82422.000000  0   -2104197.607   5003483.256   4232410.543
10 0 59799  82542.000000  0   -2113870.675   5546400.065   3487543.299
10 0 59799  82662.000000  0   -2077938.466   5992118.837   2681267.939
10 0 59799  82782.000000  0   -1998800.237   6332054.975   1827773.601
10 0 59799  82902.000000  0   -1879750.126   6559538.257    942090.057
10 0 59799  83022.000000  0   -1724884.602   6669949.792     39817.055
10 0 59799  83142.000000  0   -1538993.220   6660819.077   -863158.130
10 0 59799  83262.000000  0   -1327434.727   6531879.049  -1750950.982
10 0 59799  83382.000000  0   -1096000.745   6285072.145  -2607970.144
10 0 59799  83502.000000  0    -850773.047   5924511.059  -3419196.053
10 0 59799  83622.000000  0    -597977.432   5456399.742  -4170445.325
10 0 59799  83742.000000  0    -343837.856   4888914.911  -4848617.950
10 0 59799  83862.000000  0     -94433.879   4232051.343  -5441920.852
10 0 59799  83982.000000  0     144435.623   3497435.599  -5940065.872
10 0 59799  84102.000000  0     367379.093   2698111.142  -6334438.470
10 0 59799  84222.000000  0     569526.121   1848301.342  -6618234.718
10 0 59799  84342.000000  0     746627.639    963156.148  -6786567.829
10 0 59799  84462.000000  0     895140.383     58484.421  -6836543.681
10 0 59799  84582.000000  0    1012294.482   -849523.574  -6767305.082
10 0 59799  84702.000000  0    1096143.148  -1744579.410  -6580043.216
10 0 59799  84822.000000  0    1145594.273  -2610580.029  -6277978.771
10 0 59799  84942.000000  0    1160424.317  -3431890.939  -5866314.690
10 0 59799  85062.000000  0    1141272.324  -4193627.263  -5352156.534
10 0 59799  85182.000000  0    1089615.457  -4881923.902  -4744399.412
10 0 59799  85302.000000  0    1007726.466  -5484191.584  -4053585.942
10 0 59799  85422.000000  0     898612.424  -5989355.608  -3291733.495
10 0 59799  85542.000000  0     765936.534  -6388069.908  -2472132.456
10 0 59799  85662.000000  0     613924.700  -6672902.450  -1609118.940
10 0 59799  85782.000000  0     447258.263  -6838486.640   -717823.873
10 0 59799  85902.000000  0     270955.170  -6881632.789    186096.157
10 0 59799  86022.000000  0      90242.890  -6801397.359   1086739.830
10 0 59799  86142.000000  0     -89573.762  -6599108.304   1968248.839
10 0 59799  86262.000000  0    -263246.710  -6278344.525   2815096.940
99
